STARLINK-2594_new
1 18388C 21038AM  21326.12657091  .00009100  00000-0  60978-3 0  3267
2 18388  53.0523 188.1622 0001773  80.7253 133.2509 15.06386013    19
STARLINK-2594_old
1 28388C 21038AM  21325.13124901  .00008426  00000-0  56471-3 0  3258
2 28388  53.0522 192.6305 0001711  81.0139 132.3493 15.06378784    13
